NORAD_CAT_ID,OBJECT_NAME,OBJECT_TYPE,EPOCH,MEAN_MOTION,ECCENTRICITY,INCLINATION,RA_OF_ASC_NODE,ARG_OF_PERICENTER,MEAN_ANOMALY,BSTAR,MEAN_MOTION_DOT,MEAN_MOTION_DDOT,TLE_LINE0,TLE_LINE1,TLE_LINE2,SEMIMAJOR_AXIS,PERIOD,APOGEE,PERIGEE,DECAYED
55413.0,STARLINK-5060,PAYLOAD,2023-08-07 09:55:07,14.98327569,0.0003715,70.0004,307.643,272.1419,87.9315,0.00011413,1.269e-05,0.0,0 STARLINK-5060,1 55413U 23014Y   23219.41328048  .00001269  00000-0  11413-3 0  9996,2 55413  70.0004 307.6430 0003715 272.1419  87.9315 14.98327569 29037,6950.2,96.107,574.647,569.483,0.0
55413.0,STARLINK-5060,PAYLOAD,2023-08-08 11:33:16,14.98328983,0.0003725,70.0005,304.9502,270.4174,89.6558,0.00012698,1.422e-05,0.0,0 STARLINK-5060,1 55413U 23014Y   23220.48144046  .00001422  00000-0  12698-3 0  9996,2 55413  70.0005 304.9502 0003725 270.4174  89.6558 14.98328983 29194,6950.196,96.107,574.65,569.472,0.0
55413.0,STARLINK-5060,PAYLOAD,2023-08-09 14:47:33,14.9833739,0.0003469,70.0008,302.0891,264.2949,95.7815,3.1168e-05,2.79e-06,0.0,0 STARLINK-5060,1 55413U 23014Y   23221.61635699  .00000279  00000-0  31168-4 0  9994,2 55413  70.0008 302.0891 0003469 264.2949  95.7815 14.98337390 29368,6950.17,96.107,574.446,569.624,0.0
55413.0,STARLINK-5060,PAYLOAD,2023-08-10 10:01:10,14.9832576,0.0003678,70.0009,300.0696,265.9068,94.1671,-1.0086e-05,-2.13e-06,0.0,0 STARLINK-5060,1 55413U 23014Y   23222.41748390 -.00000213  00000-0 -10086-4 0  9992,2 55413  70.0009 300.0696 0003678 265.9068  94.1671 14.98325760 29486,6950.206,96.107,574.627,569.515,0.0
55413.0,STARLINK-5060,PAYLOAD,2023-08-11 14:51:35,14.98335704,0.0003823,69.9997,297.0386,269.8791,90.193,-1.6537e-05,-2.9e-06,0.0,0 STARLINK-5060,1 55413U 23014Y   23223.61915810 -.00000290  00000-0 -16537-4 0  9990,2 55413  69.9997 297.0386 0003823 269.8791  90.1930 14.98335704 29661,6950.175,96.107,574.697,569.383,0.0
55413.0,STARLINK-5060,PAYLOAD,2023-08-11 22:52:15,14.98324982,0.0003775,69.9999,296.1967,267.6086,92.4641,8.9178e-05,9.71e-06,0.0,0 STARLINK-5060,1 55413U 23014Y   23223.95296212  .00000971  00000-0  89178-4 0  9990,2 55413  69.9999 296.1967 0003775 267.6086  92.4641 14.98324982 29713,6950.208,96.107,574.697,569.45,0.0
55413.0,STARLINK-5060,PAYLOAD,2023-08-12 22:54:16,14.98330923,0.0003776,69.9996,293.6721,269.4829,90.5898,4.1011e-05,3.96e-06,0.0,0 STARLINK-5060,1 55413U 23014Y   23224.95435908  .00000396  00000-0  41011-4 0  9993,2 55413  69.9996 293.6721 0003776 269.4829  90.5898 14.98330923 29867,6950.19,96.107,574.679,569.431,0.0
55413.0,STARLINK-5060,PAYLOAD,2023-08-13 22:56:17,14.98330879,0.0003807,69.9996,291.1475,269.1471,90.9252,-1.0049e-05,-2.13e-06,0.0,0 STARLINK-5060,1 55413U 23014Y   23225.95575985 -.00000213  00000-0 -10049-4 0  9991,2 55413  69.9996 291.1475 0003807 269.1471  90.9252 14.98330879 30018,6950.19,96.107,574.701,569.409,0.0
55413.0,STARLINK-5060,PAYLOAD,2023-08-14 22:58:18,14.98332234,0.0003837,69.9994,288.6228,268.1726,91.8994,1.4882e-05,8.4e-07,0.0,0 STARLINK-5060,1 55413U 23014Y   23226.95715737  .00000084  00000-0  14882-4 0  9996,2 55413  69.9994 288.6228 0003837 268.1726  91.8994 14.98332234 30164,6950.186,96.107,574.718,569.384,0.0
55413.0,STARLINK-5060,PAYLOAD,2023-08-15 23:00:19,14.98330695,0.0003823,69.9991,286.0975,269.4677,90.6044,-1.0736e-05,-2.21e-06,0.0,0 STARLINK-5060,1 55413U 23014Y   23227.95855779 -.00000221  00000-0 -10736-4 0  9997,2 55413  69.9991 286.0975 0003823 269.4677  90.6044 14.98330695 30315,6950.191,96.107,574.713,569.399,0.0
55413.0,STARLINK-5060,PAYLOAD,2023-08-16 23:02:20,14.98331069,0.0003836,69.9988,283.5721,269.2946,90.7774,-1.2483e-05,-2.42e-06,0.0,0 STARLINK-5060,1 55413U 23014Y   23228.95995727 -.00000242  00000-0 -12483-4 0  9990,2 55413  69.9988 283.5721 0003836 269.2946  90.7774 14.98331069 30466,6950.19,96.107,574.721,569.388,0.0
55413.0,STARLINK-5060,PAYLOAD,2023-08-17 23:04:21,14.98328323,0.0003814,69.9988,281.0469,268.8186,91.2536,3.8164e-05,3.62e-06,0.0,0 STARLINK-5060,1 55413U 23014Y   23229.96135604  .00000362  00000-0  38164-4 0  9997,2 55413  69.9988 281.0469 0003814 268.8186  91.2536 14.98328323 30613,6950.198,96.107,574.714,569.412,0.0
55413.0,STARLINK-5060,PAYLOAD,2023-08-19 02:18:38,14.98330713,0.0003815,69.9989,278.1858,269.8087,90.2635,2.8365e-05,2.45e-06,0.0,0 STARLINK-5060,1 55413U 23014Y   23231.09627548  .00000245  00000-0  28365-4 0  9999,2 55413  69.9989 278.1858 0003815 269.8087  90.2635 14.98330713 30788,6950.191,96.107,574.707,569.404,0.0
55413.0,STARLINK-5060,PAYLOAD,2023-08-20 03:56:47,14.9832596,0.0003713,69.999,275.4926,268.3759,91.6975,1.7208e-05,1.12e-06,0.0,0 STARLINK-5060,1 55413U 23014Y   23232.16443752  .00000112  00000-0  17208-4 0  9998,2 55413  69.9990 275.4926 0003713 268.3759  91.6975 14.98325960 30941,6950.205,96.107,574.651,569.49,0.0
55413.0,STARLINK-5060,PAYLOAD,2023-08-21 10:23:20,14.98330506,0.0003767,69.9986,272.2946,268.4022,91.6706,3.2523e-06,-5.4e-07,0.0,0 STARLINK-5060,1 55413U 23014Y   23233.43287505 -.00000054  00000-0  32523-5 0  9995,2 55413  69.9986 272.2946 0003767 268.4022  91.6706 14.98330506 31132,6950.191,96.107,574.674,569.438,0.0
55413.0,STARLINK-5060,PAYLOAD,2023-08-22 10:25:21,14.98326215,0.0003634,69.9992,269.7708,264.6754,95.3991,-7.7935e-06,-1.86e-06,0.0,0 STARLINK-5060,1 55413U 23014Y   23234.43427789 -.00000186  00000-0 -77935-5 0  9999,2 55413  69.9992 269.7708 0003634 264.6754  95.3991 14.98326215 31284,6950.205,96.107,574.595,569.544,0.0
55413.0,STARLINK-5060,PAYLOAD,2023-08-23 12:03:30,14.98331035,0.0003835,69.9983,267.0766,267.8022,92.2698,9.2186e-06,1.7e-07,0.0,0 STARLINK-5060,1 55413U 23014Y   23235.50243438  .00000017  00000-0  92186-5 0  9991,2 55413  69.9983 267.0766 0003835 267.8022  92.2698 14.98331035 31449,6950.19,96.107,574.72,569.389,0.0
55413.0,STARLINK-5060,PAYLOAD,2023-08-24 12:05:31,14.98329965,0.0003865,69.9982,264.5509,268.8002,91.2714,2.4497e-05,1.99e-06,0.0,0 STARLINK-5060,1 55413U 23014Y   23236.50383428  .00000199  00000-0  24497-4 0  9996,2 55413  69.9982 264.5509 0003865 268.8002  91.2714 14.98329965 31590,6950.193,96.107,574.744,569.372,0.0
55413.0,STARLINK-5060,PAYLOAD,2023-08-25 10:31:24,14.98322916,0.0003818,69.9982,262.1935,269.3218,90.7504,-8.0489e-05,-1.053e-05,0.0,0 STARLINK-5060,1 55413U 23014Y   23237.43848159 -.00001053  00000-0 -80489-4 0  9991,2 55413  69.9982 262.1935 0003818 269.3218  90.7504 14.98322916 31736,6950.215,96.107,574.733,569.426,0.0
55413.0,STARLINK-5060,PAYLOAD,2023-08-25 12:07:33,14.98321614,0.0004007,69.998,262.0245,273.6456,86.4245,-0.00011119,-1.419e-05,0.0,0 STARLINK-5060,1 55413U 23014Y   23237.50524354 -.00001419  00000-0 -11119-3 0  9996,2 55413  69.9980 262.0245 0004007 273.6456  86.4245 14.98321614 32683,6950.219,96.108,574.869,569.299,0.0
55413.0,STARLINK-5060,PAYLOAD,2023-08-25 15:19:49,14.98319215,0.0003969,69.9981,261.6884,272.6579,87.4126,-0.0001285,-1.626e-05,0.0,0 STARLINK-5060,1 55413U 23014Y   23237.63876615 -.00001626  00000-0 -12850-3 0  9993,2 55413  69.9981 261.6884 0003969 272.6579  87.4126 14.98319215 32705,6950.226,96.108,574.85,569.333,0.0
55413.0,STARLINK-5060,PAYLOAD,2023-08-26 10:33:26,14.98320048,0.000403,69.998,259.6685,272.2071,87.8626,-6.3855e-05,-8.55e-06,0.0,0 STARLINK-5060,1 55413U 23014Y   23238.43988844 -.00000855  00000-0 -63855-4 0  9995,2 55413  69.9980 259.6685 0004030 272.2071  87.8626 14.98320048 31886,6950.224,96.108,574.89,569.288,0.0
55413.0,STARLINK-5060,PAYLOAD,2023-08-27 08:59:19,14.98323964,0.0004028,69.9977,257.3122,270.6603,89.4095,-4.622e-05,-6.45e-06,0.0,0 STARLINK-5060,1 55413U 23014Y   23239.37453049 -.00000645  00000-0 -46220-4 0  9997,2 55413  69.9977 257.3122 0004028 270.6603  89.4095 14.98323964 32961,6950.212,96.107,574.876,569.277,0.0
55413.0,STARLINK-5060,PAYLOAD,2023-08-27 13:47:43,14.98324585,0.0004046,69.9978,256.807,269.9147,90.1548,-3.0083e-05,-4.52e-06,0.0,0 STARLINK-5060,1 55413U 23014Y   23239.57481051 -.00000452  00000-0 -30083-4 0  9999,2 55413  69.9978 256.8070 0004046 269.9147  90.1548 14.98324585 32054,6950.21,96.107,574.887,569.263,0.0
55413.0,STARLINK-5060,PAYLOAD,2023-08-28 18:38:08,14.9832712,0.0004073,69.9978,253.7771,268.0201,92.0491,9.7041e-05,1.065e-05,0.0,0 STARLINK-5060,1 55413U 23014Y   23240.77649080  .00001065  00000-0  97041-4 0  9997,2 55413  69.9978 253.7771 0004073 268.0201  92.0491 14.98327120 32235,6950.202,96.107,574.898,569.236,0.0
55413.0,STARLINK-5060,PAYLOAD,2023-08-29 12:15:37,14.98332361,0.0004085,69.9979,251.9254,267.7304,92.3387,9.0682e-05,9.89e-06,0.0,0 STARLINK-5060,1 55413U 23014Y   23241.51084753  .00000989  00000-0  90682-4 0  9998,2 55413  69.9979 251.9254 0004085 267.7304  92.3387 14.98332361 33281,6950.186,96.107,574.89,569.211,0.0
55413.0,STARLINK-5060,PAYLOAD,2023-08-30 01:04:41,14.98335633,0.0004081,69.9979,250.5788,267.5931,92.4761,7.6478e-05,8.2e-06,0.0,0 STARLINK-5060,1 55413U 23014Y   23242.04492420  .00000820  00000-0  76478-4 0  9992,2 55413  69.9979 250.5788 0004081 267.5931  92.4761 14.98335633 32425,6950.175,96.107,574.877,569.204,0.0
55413.0,STARLINK-5060,PAYLOAD,2023-08-30 10:41:29,14.98339219,0.0004079,69.9983,249.5688,267.5215,92.5477,7.5041e-05,8.03e-06,0.0,0 STARLINK-5060,1 55413U 23014Y   23242.44547990  .00000803  00000-0  75041-4 0  9995,2 55413  69.9983 249.5688 0004079 267.5215  92.5477 14.98339219 33429,6950.164,96.106,574.864,569.194,0.0
55413.0,STARLINK-5060,PAYLOAD,2023-08-31 10:43:29,14.98362652,0.0003854,69.9988,247.0439,266.1898,93.8821,-0.00028196,-3.459e-05,0.0,0 STARLINK-5060,1 55413U 23014Y   23243.44686572 -.00003459  00000-0 -28196-3 0  9996,2 55413  69.9988 247.0439 0003854 266.1898  93.8821 14.98362652 32639,6950.092,96.105,574.635,569.278,0.0
55413.0,STARLINK-5060,PAYLOAD,2023-08-31 23:32:33,14.98343271,0.0003284,70.0001,245.7013,267.9005,92.1778,2.5907e-05,2.16e-06,0.0,0 STARLINK-5060,1 55413U 23014Y   23243.98094905  .00000216  00000-0  25907-4 0  9992,2 55413  70.0001 245.7013 0003284 267.9005  92.1778 14.98343271 32715,6950.152,96.106,574.299,569.734,0.0
